{
  "links" : {
    "next" : "https://api.nasa.gov/neo/rest/v1/feed?start_date=1997-11-23&end_date=1997-11-23&detailed=true&api_key=t0TVs3DtDT2H8Oy2Zy8m2eVrNsAVKAexjcZXUckd",
    "prev" : "https://api.nasa.gov/neo/rest/v1/feed?start_date=1997-11-21&end_date=1997-11-21&detailed=true&api_key=t0TVs3DtDT2H8Oy2Zy8m2eVrNsAVKAexjcZXUckd",
    "self" : "https://api.nasa.gov/neo/rest/v1/feed?start_date=1997-11-22&end_date=1997-11-22&detailed=true&api_key=t0TVs3DtDT2H8Oy2Zy8m2eVrNsAVKAexjcZXUckd"
  },
  "element_count" : 5,
  "near_earth_objects" : {
    "1997-11-22" : [ {
      "links" : {
        "self" : "https://api.nasa.gov/neo/rest/v1/neo/3634155?api_key=t0TVs3DtDT2H8Oy2Zy8m2eVrNsAVKAexjcZXUckd"
      },
      "neo_reference_id" : "3634155",
      "name" : "(2013 GN3)",
      "nasa_jpl_url" : "http://ssd.jpl.nasa.gov/sbdb.cgi?sstr=3634155",
      "absolute_magnitude_h" : 23.6,
      "estimated_diameter" : {
        "kilometers" : {
          "estimated_diameter_min" : 0.0506471459,
          "estimated_diameter_max" : 0.1132504611
        },
        "meters" : {
          "estimated_diameter_min" : 50.6471458835,
          "estimated_diameter_max" : 113.2504610618
        },
        "miles" : {
          "estimated_diameter_min" : 0.0314706677,
          "estimated_diameter_max" : 0.0703705522
        },
        "feet" : {
          "estimated_diameter_min" : 166.1651821003,
          "estimated_diameter_max" : 371.5566426699
        }
      },
      "is_potentially_hazardous_asteroid" : false,
      "close_approach_data" : [ {
        "close_approach_date" : "1997-11-22",
        "epoch_date_close_approach" : 880185600000,
        "relative_velocity" : {
          "kilometers_per_second" : "2.1943978653",
          "kilometers_per_hour" : "7899.832314984",
          "miles_per_hour" : "4908.6485848299"
        },
        "miss_distance" : {
          "astronomical" : "0.1829157815",
          "lunar" : "71.1542358398",
          "kilometers" : "27363810",
          "miles" : "17003084"
        },
        "orbiting_body" : "Earth"
      } ],
      "orbital_data" : {
        "orbit_id" : "16",
        "orbit_determination_date" : "2017-04-06 08:46:16",
        "orbit_uncertainty" : "3",
        "minimum_orbit_intersection" : ".055087",
        "jupiter_tisserand_invariant" : "5.194",
        "epoch_osculation" : "2458000.5",
        "eccentricity" : ".1848367586339127",
        "semi_major_axis" : "1.226841128105832",
        "inclination" : "3.786531011398004",
        "ascending_node_longitude" : "198.8864286076411",
        "orbital_period" : "496.341874868455",
        "perihelion_distance" : "1.000075790627977",
        "perihelion_argument" : "288.2294551215873",
        "aphelion_distance" : "1.453606465583687",
        "perihelion_time" : "2457806.635895552938",
        "mean_anomaly" : "140.6108997340575",
        "mean_motion" : ".7253065240473825",
        "equinox" : "J2000"
      }
    }, {
      "links" : {
        "self" : "https://api.nasa.gov/neo/rest/v1/neo/3772993?api_key=t0TVs3DtDT2H8Oy2Zy8m2eVrNsAVKAexjcZXUckd"
      },
      "neo_reference_id" : "3772993",
      "name" : "(2017 FY101)",
      "nasa_jpl_url" : "http://ssd.jpl.nasa.gov/sbdb.cgi?sstr=3772993",
      "absolute_magnitude_h" : 27.197,
      "estimated_diameter" : {
        "kilometers" : {
          "estimated_diameter_min" : 0.0096639567,
          "estimated_diameter_max" : 0.0216092642
        },
        "meters" : {
          "estimated_diameter_min" : 9.6639567269,
          "estimated_diameter_max" : 21.609264173
        },
        "miles" : {
          "estimated_diameter_min" : 0.0060049025,
          "estimated_diameter_max" : 0.0134273701
        },
        "feet" : {
          "estimated_diameter_min" : 31.705895788,
          "estimated_diameter_max" : 70.8965382695
        }
      },
      "is_potentially_hazardous_asteroid" : false,
      "close_approach_data" : [ {
        "close_approach_date" : "1997-11-22",
        "epoch_date_close_approach" : 880185600000,
        "relative_velocity" : {
          "kilometers_per_second" : "6.8188722073",
          "kilometers_per_hour" : "24547.9399461489",
          "miles_per_hour" : "15253.1352404279"
        },
        "miss_distance" : {
          "astronomical" : "0.1955414526",
          "lunar" : "76.0656280518",
          "kilometers" : "29252586",
          "miles" : "18176714"
        },
        "orbiting_body" : "Earth"
      } ],
      "orbital_data" : {
        "orbit_id" : "3",
        "orbit_determination_date" : "2017-04-06 08:19:01",
        "orbit_uncertainty" : "6",
        "minimum_orbit_intersection" : ".00223976",
        "jupiter_tisserand_invariant" : "6.091",
        "epoch_osculation" : "2458000.5",
        "eccentricity" : ".3458404440467126",
        "semi_major_axis" : ".986420173735552",
        "inclination" : "2.500098601413876",
        "ascending_node_longitude" : "6.219294469626103",
        "orbital_period" : "357.8420270713033",
        "perihelion_distance" : ".6452761828342133",
        "perihelion_argument" : "294.9074533476469",
        "aphelion_distance" : "1.327564164636891",
        "perihelion_time" : "2457913.918084464956",
        "mean_anomaly" : "87.10404936982205",
        "mean_motion" : "1.006030518400419",
        "equinox" : "J2000"
      }
    } ]
  }
}